[{"OBJECT_NAME":"STARLINK-4098","OBJECT_ID":"2022-083X","EPOCH":"2026-03-18T09:47:51.403776","MEAN_MOTION":15.08838142,"ECCENTRICITY":0.00011964,"INCLINATION":53.2169,"RA_OF_ASC_NODE":124.9826,"ARG_OF_PERICENTER":81.2419,"MEAN_ANOMALY":278.8708,"EPHEMERIS_TYPE":0,"CLASSIFICATION_TYPE":"U","NORAD_CAT_ID":53153,"ELEMENT_SET_NO":999,"REV_AT_EPOCH":20267,"BSTAR":2.0763074e-5,"MEAN_MOTION_DOT":4.3e-7,"MEAN_MOTION_DDOT":0},{"OBJECT_NAME":"STARLINK-4077","OBJECT_ID":"2022-083Y","EPOCH":"2026-03-18T19:30:47.192544","MEAN_MOTION":15.08840023,"ECCENTRICITY":0.00011831,"INCLINATION":53.2167,"RA_OF_ASC_NODE":123.1646,"ARG_OF_PERICENTER":85.9947,"MEAN_ANOMALY":274.118,"EPHEMERIS_TYPE":0,"CLASSIFICATION_TYPE":"U","NORAD_CAT_ID":53154,"ELEMENT_SET_NO":999,"REV_AT_EPOCH":20273,"BSTAR":8.3291683e-5,"MEAN_MOTION_DOT":1.038e-5,"MEAN_MOTION_DDOT":0},{"OBJECT_NAME":"STARLINK-4088","OBJECT_ID":"2022-083Z","EPOCH":"2026-03-18T09:37:17.657184","MEAN_MOTION":15.08845204,"ECCENTRICITY":0.00011049,"INCLINATION":53.2155,"RA_OF_ASC_NODE":125.0134,"ARG_OF_PERICENTER":107.2174,"MEAN_ANOMALY":252.8939,"EPHEMERIS_TYPE":0,"CLASSIFICATION_TYPE":"U","NORAD_CAT_ID":53155,"ELEMENT_SET_NO":999,"REV_AT_EPOCH":20331,"BSTAR":0.00051056468,"MEAN_MOTION_DOT":7.848e-5,"MEAN_MOTION_DDOT":0},{"OBJECT_NAME":"STARLINK-4087","OBJECT_ID":"2022-083AA","EPOCH":"2026-03-18T09:21:20.381472","MEAN_MOTION":15.08846174,"ECCENTRICITY":0.00011216,"INCLINATION":53.2159,"RA_OF_ASC_NODE":124.9386,"ARG_OF_PERICENTER":93.5135,"MEAN_ANOMALY":266.5986,"EPHEMERIS_TYPE":0,"CLASSIFICATION_TYPE":"U","NORAD_CAT_ID":53156,"ELEMENT_SET_NO":999,"REV_AT_EPOCH":20267,"BSTAR":7.3135224e-5,"MEAN_MOTION_DOT":8.77e-6,"MEAN_MOTION_DDOT":0},{"OBJECT_NAME":"STARLINK-4054","OBJECT_ID":"2022-083AC","EPOCH":"2026-03-18T09:42:33.634080","MEAN_MOTION":15.0883702,"ECCENTRICITY":0.00013614,"INCLINATION":53.2167,"RA_OF_ASC_NODE":124.9959,"ARG_OF_PERICENTER":82.51,"MEAN_ANOMALY":277.6047,"EPHEMERIS_TYPE":0,"CLASSIFICATION_TYPE":"U","NORAD_CAT_ID":53158,"ELEMENT_SET_NO":999,"REV_AT_EPOCH":20267,"BSTAR":1.0691852e-5,"MEAN_MOTION_DOT":-1.18e-6,"MEAN_MOTION_DDOT":0},{"OBJECT_NAME":"STARLINK-4111","OBJECT_ID":"2022-083AD","EPOCH":"2026-03-18T20:23:46.041216","MEAN_MOTION":15.08839317,"ECCENTRICITY":0.00013443,"INCLINATION":53.2165,"RA_OF_ASC_NODE":122.999,"ARG_OF_PERICENTER":87.9834,"MEAN_ANOMALY":272.1312,"EPHEMERIS_TYPE":0,"CLASSIFICATION_TYPE":"U","NORAD_CAT_ID":53159,"ELEMENT_SET_NO":999,"REV_AT_EPOCH":20274,"BSTAR":3.474455e-5,"MEAN_MOTION_DOT":2.65e-6,"MEAN_MOTION_DDOT":0},{"OBJECT_NAME":"STARLINK-4096","OBJECT_ID":"2022-083AE","EPOCH":"2026-03-18T20:39:39.536928","MEAN_MOTION":15.08842879,"ECCENTRICITY":0.00012564,"INCLINATION":53.2177,"RA_OF_ASC_NODE":122.9473,"ARG_OF_PERICENTER":101.0915,"MEAN_ANOMALY":259.0219,"EPHEMERIS_TYPE":0,"CLASSIFICATION_TYPE":"U","NORAD_CAT_ID":53160,"ELEMENT_SET_NO":999,"REV_AT_EPOCH":20274,"BSTAR":2.5779369e-5,"MEAN_MOTION_DOT":1.22e-6,"MEAN_MOTION_DDOT":0},{"OBJECT_NAME":"STARLINK-4055","OBJECT_ID":"2022-083AF","EPOCH":"2026-03-18T20:07:51.457728","MEAN_MOTION":15.08846329,"ECCENTRICITY":0.00013882,"INCLINATION":53.2174,"RA_OF_ASC_NODE":123.0508,"ARG_OF_PERICENTER":81.0191,"MEAN_ANOMALY":279.0958,"EPHEMERIS_TYPE":0,"CLASSIFICATION_TYPE":"U","NORAD_CAT_ID":53161,"ELEMENT_SET_NO":999,"REV_AT_EPOCH":20274,"BSTAR":8.7918821e-5,"MEAN_MOTION_DOT":1.112e-5,"MEAN_MOTION_DDOT":0},{"OBJECT_NAME":"STARLINK-4114","OBJECT_ID":"2022-083AG","EPOCH":"2026-03-18T20:30:26.868960","MEAN_MOTION":15.08833127,"ECCENTRICITY":0.0001281,"INCLINATION":53.2168,"RA_OF_ASC_NODE":122.9895,"ARG_OF_PERICENTER":86.5231,"MEAN_ANOMALY":273.5907,"EPHEMERIS_TYPE":0,"CLASSIFICATION_TYPE":"U","NORAD_CAT_ID":53162,"ELEMENT_SET_NO":999,"REV_AT_EPOCH":20274,"BSTAR":0.00012201388,"MEAN_MOTION_DOT":1.654e-5,"MEAN_MOTION_DDOT":0},{"OBJECT_NAME":"STARLINK-4104","OBJECT_ID":"2022-083AH","EPOCH":"2026-03-18T20:18:29.587392","MEAN_MOTION":15.088425,"ECCENTRICITY":0.00013727,"INCLINATION":53.2164,"RA_OF_ASC_NODE":123.161,"ARG_OF_PERICENTER":90.3996,"MEAN_ANOMALY":269.7154,"EPHEMERIS_TYPE":0,"CLASSIFICATION_TYPE":"U","NORAD_CAT_ID":53163,"ELEMENT_SET_NO":999,"REV_AT_EPOCH":20274,"BSTAR":9.8205102e-5,"MEAN_MOTION_DOT":1.275e-5,"MEAN_MOTION_DDOT":0},{"OBJECT_NAME":"STARLINK-4116","OBJECT_ID":"2022-083AJ","EPOCH":"2026-03-18T20:13:10.567488","MEAN_MOTION":15.08837997,"ECCENTRICITY":0.00012763,"INCLINATION":53.2164,"RA_OF_ASC_NODE":123.0345,"ARG_OF_PERICENTER":93.8498,"MEAN_ANOMALY":266.264,"EPHEMERIS_TYPE":0,"CLASSIFICATION_TYPE":"U","NORAD_CAT_ID":53164,"ELEMENT_SET_NO":999,"REV_AT_EPOCH":20274,"BSTAR":8.6859481e-5,"MEAN_MOTION_DOT":1.095e-5,"MEAN_MOTION_DDOT":0},{"OBJECT_NAME":"STARLINK-4090","OBJECT_ID":"2022-083AK","EPOCH":"2026-03-18T19:51:58.389696","MEAN_MOTION":15.08838783,"ECCENTRICITY":0.00013107,"INCLINATION":53.2167,"RA_OF_ASC_NODE":123.0998,"ARG_OF_PERICENTER":83.5719,"MEAN_ANOMALY":276.5422,"EPHEMERIS_TYPE":0,"CLASSIFICATION_TYPE":"U","NORAD_CAT_ID":53165,"ELEMENT_SET_NO":999,"REV_AT_EPOCH":20274,"BSTAR":3.3901973e-5,"MEAN_MOTION_DOT":2.52e-6,"MEAN_MOTION_DDOT":0},{"OBJECT_NAME":"STARLINK-4110","OBJECT_ID":"2022-083AL","EPOCH":"2026-03-18T19:48:01.783296","MEAN_MOTION":15.08838334,"ECCENTRICITY":0.00012055,"INCLINATION":53.2158,"RA_OF_ASC_NODE":123.011,"ARG_OF_PERICENTER":86.7417,"MEAN_ANOMALY":273.3713,"EPHEMERIS_TYPE":0,"CLASSIFICATION_TYPE":"U","NORAD_CAT_ID":53166,"ELEMENT_SET_NO":999,"REV_AT_EPOCH":20274,"BSTAR":6.000561e-5,"MEAN_MOTION_DOT":6.67e-6,"MEAN_MOTION_DDOT":0},{"OBJECT_NAME":"STARLINK-3683","OBJECT_ID":"2022-083AM","EPOCH":"2026-03-18T18:42:25.560864","MEAN_MOTION":15.08842668,"ECCENTRICITY":0.00013741,"INCLINATION":53.2169,"RA_OF_ASC_NODE":108.3066,"ARG_OF_PERICENTER":88.5557,"MEAN_ANOMALY":271.5593,"EPHEMERIS_TYPE":0,"CLASSIFICATION_TYPE":"U","NORAD_CAT_ID":53167,"ELEMENT_SET_NO":999,"REV_AT_EPOCH":20293,"BSTAR":-0.00020272392,"MEAN_MOTION_DOT":-3.513e-5,"MEAN_MOTION_DDOT":0},{"OBJECT_NAME":"STARLINK-4105","OBJECT_ID":"2022-083AN","EPOCH":"2026-03-18T19:57:16.517088","MEAN_MOTION":15.08836692,"ECCENTRICITY":0.00012883,"INCLINATION":53.217,"RA_OF_ASC_NODE":123.0841,"ARG_OF_PERICENTER":89.8375,"MEAN_ANOMALY":270.2765,"EPHEMERIS_TYPE":0,"CLASSIFICATION_TYPE":"U","NORAD_CAT_ID":53168,"ELEMENT_SET_NO":999,"REV_AT_EPOCH":20274,"BSTAR":3.4576098e-5,"MEAN_MOTION_DOT":2.62e-6,"MEAN_MOTION_DDOT":0},{"OBJECT_NAME":"STARLINK-4117","OBJECT_ID":"2022-083AP","EPOCH":"2026-03-18T08:38:21.312960","MEAN_MOTION":15.0883923,"ECCENTRICITY":0.00012739,"INCLINATION":53.2162,"RA_OF_ASC_NODE":110.4567,"ARG_OF_PERICENTER":90.3066,"MEAN_ANOMALY":269.8072,"EPHEMERIS_TYPE":0,"CLASSIFICATION_TYPE":"U","NORAD_CAT_ID":53169,"ELEMENT_SET_NO":999,"REV_AT_EPOCH":20286,"BSTAR":7.0444673e-5,"MEAN_MOTION_DOT":8.33e-6,"MEAN_MOTION_DDOT":0}]
