STARLINK-4098           
1 53153U 22083X   26077.40823384  .00000043  00000+0  20763-4 0  9994
2 53153  53.2169 124.9826 0001196  81.2419 278.8708 15.08838142202676
STARLINK-4077           
1 53154U 22083Y   26077.81304621  .00001038  00000+0  83292-4 0  9999
2 53154  53.2167 123.1646 0001183  85.9947 274.1180 15.08840023202730
STARLINK-4088           
1 53155U 22083Z   26077.40089881  .00007848  00000+0  51056-3 0  9990
2 53155  53.2155 125.0134 0001104 107.2174 252.8939 15.08845204203310
STARLINK-4087           
1 53156U 22083AA  26077.38981923  .00000877  00000+0  73135-4 0  9994
2 53156  53.2159 124.9386 0001121  93.5135 266.5986 15.08846174202674
STARLINK-4054           
1 53158U 22083AC  26077.40455595 -.00000118  00000+0  10692-4 0  9998
2 53158  53.2167 124.9959 0001361  82.5100 277.6047 15.08837020202678
STARLINK-4111           
1 53159U 22083AD  26077.84983844  .00000265  00000+0  34745-4 0  9997
2 53159  53.2165 122.9990 0001344  87.9834 272.1312 15.08839317202748
STARLINK-4096           
1 53160U 22083AE  26077.86087427  .00000122  00000+0  25779-4 0  9992
2 53160  53.2177 122.9473 0001256 101.0915 259.0219 15.08842879202746
STARLINK-4055           
1 53161U 22083AF  26077.83879002  .00001112  00000+0  87919-4 0  9992
2 53161  53.2174 123.0508 0001388  81.0191 279.0958 15.08846329202740
STARLINK-4114           
1 53162U 22083AG  26077.85447765  .00001654  00000+0  12201-3 0  9994
2 53162  53.2168 122.9895 0001281  86.5231 273.5907 15.08833127202743
STARLINK-4104           
1 53163U 22083AH  26077.84617578  .00001275  00000+0  98205-4 0  9993
2 53163  53.2164 123.1610 0001372  90.3996 269.7154 15.08842500202746
STARLINK-4116           
1 53164U 22083AJ  26077.84248342  .00001095  00000+0  86859-4 0  9995
2 53164  53.2164 123.0345 0001276  93.8498 266.2640 15.08837997202745
STARLINK-4090           
1 53165U 22083AK  26077.82775914  .00000252  00000+0  33902-4 0  9999
2 53165  53.2167 123.0998 0001310  83.5719 276.5422 15.08838783202740
STARLINK-4110           
1 53166U 22083AL  26077.82502064  .00000667  00000+0  60006-4 0  9999
2 53166  53.2158 123.0110 0001205  86.7417 273.3713 15.08838334202740
STARLINK-3683           
1 53167U 22083AM  26077.77946251 -.00003513  00000+0 -20272-3 0  9999
2 53167  53.2169 108.3066 0001374  88.5557 271.5593 15.08842668202933
STARLINK-4105           
1 53168U 22083AN  26077.83144117  .00000262  00000+0  34576-4 0  9997
2 53168  53.2170 123.0841 0001288  89.8375 270.2765 15.08836692202743
STARLINK-4117           
1 53169U 22083AP  26077.35996890  .00000833  00000+0  70445-4 0  9997
2 53169  53.2162 110.4567 0001273  90.3066 269.8072 15.08839230202867
